1 04383U 70036A   21083.25417552 -.00000019  00000-0 -21323-4 0  9996
2 04383  74.0330   2.5198 0014042 117.8021  50.4935 12.47623235318556
1 04383U 70036A   21083.87300576 -.00000021  00000-0 -33760-4 0  9992
2 04383  74.0330   1.7012 0014043 116.8339 309.9768 12.47623250318636
1  4383U 70036A   21084.21277250 -.00000017  00000-0 -10378-4 0  9998
2  4383  74.0330   1.2518 0014044 116.2865  36.0587 12.47623249319064
1 04383U 70036A   21084.53806513 -.00000015  00000-0  37920-5 0  9993
2 04383  74.0330   0.8215 0014044 115.7687  57.1232 12.47623262318716
1 04383U 70036A   21085.15643846 -.00000011  00000-0  33992-4 0  9990
2 04383  74.0329   0.0035 0014041 114.8034 314.5519 12.47623273318797
1 04383U 70036A   21085.87708721 -.00000012  00000-0  22094-4 0  9995
2 04383  74.0329 359.0502 0014044 113.6699 311.3599 12.47623254318882
1  4383U 70036A   21086.21764271 -.00000009  00000-0  42790-4 0  9997
2  4383  74.0329 358.5997 0014044 113.1321  40.9736 12.47623255319319
1 04383U 70036A   21086.54287852 -.00000009  00000-0  47777-4 0  9998
2 04383  74.0328 358.1694 0014046 112.6181  61.7792 12.47623259318965
1 04383U 70036A   21086.92109003 -.00000007  00000-0  59024-4 0  9997
2 04383  74.0328 357.6691 0014043 112.0360 320.5110 12.47623274319010
1 04383U 70036A   21087.50484080  .00000000  00000-0  10846-3 0  9993
2 04383  74.0328 356.8969 0014040 111.1164  62.4405 12.47623291319083
1 04383U 70036A   21087.79953164  .00000001  00000-0  11111-3 0  9995
2 04383  74.0327 356.5070 0014042 110.6597 306.0435 12.47623304319128
1 04383U 70036A   21088.22272189  .00000005  00000-0  13944-3 0  9995
2 04383  74.0327 355.9472 0014041 109.9943  46.8107 12.47623313319172
1  4383U 70036A   21088.22272189  .00000005  00000-0  13944-3 0  9995
2  4383  74.0327 355.9472 0014041 109.9943  46.8107 12.47623313319565
1 04383U 70036A   21088.76313475  .00000001  00000-0  11287-3 0  9992
2 04383  74.0326 355.2323 0014042 109.1454 314.0846 12.47623301319244
1 04383U 70036A   21089.18401687  .00000002  00000-0  11845-3 0  9993
2 04383  74.0326 354.6755 0014040 108.4835  44.4849 12.47623297319295
1 04383U 70036A   21089.80415080 -.00000001  00000-0  10225-3 0  9995
2 04383  74.0326 353.8552 0014042 107.5123 309.8248 12.47623311319370
1 04383U 70036A   21090.20879932  .00000003  00000-0  12609-3 0  9990
2 04383  74.0325 353.3199 0014039 106.8749 327.3126 12.47623318319426
1  4383U 70036A   21090.99659281  .00000002  00000-0  12068-3 0  9997
2  4383  74.0324 352.2777 0014045 105.6461 265.6929 12.47623335319918
1 04383U 70036A   21091.18868736 -.00000001  00000-0  96665-4 0  9992
2 04383  74.0324 352.0236 0014047 105.3381  48.4952 12.47623330319543
1 04383U 70036A   21091.89239880 -.00000008  00000-0  50323-4 0  9990
2 04383  74.0323 351.0927 0014047 104.2379 329.2230 12.47623337319639
1 04383U 70036A   21092.47542505 -.00000007  00000-0  56345-4 0  9995
2 04383  74.0323 350.3214 0014047 103.3132  67.9049 12.47623353319707
1 04383U 70036A   21092.85349896 -.00000009  00000-0  43585-4 0  9999
2 04383  74.0322 349.8213 0014045 102.7295 326.0208 12.47623373319752
1  4383U 70036A   21093.10367685 -.00000005  00000-0  71099-4 0  9991
2  4383  74.0322 349.4903 0014049 102.3392   9.6968 12.47623397320173
1 04383U 70036A   21093.43798565 -.00000007  00000-0  59169-4 0  9998
2 04383  74.0321 349.0481 0014045 101.8080  71.2572 12.47623412319827
1 04383U 70036A   21093.89724528 -.00000011  00000-0  31717-4 0  9990
2 04383  74.0320 348.4405 0014047 101.0987 334.0183 12.47623415319882
1 04383U 70036A   21094.06401454 -.00000012  00000-0  24221-4 0  9993
2 04383  74.0320 348.2199 0014042 100.8325   3.0697 12.47623402319900
1 04383U 70036A   21094.92485874 -.00000019  00000-0 -20105-4 0  9991
2 04383  74.0319 347.0811 0014043  99.4804 269.5672 12.47623388320011
1  4383U 70036A   21095.18957380 -.00000015  00000-0  45188-5 0  9990
2  4383  74.0318 346.7309 0014044  99.0618  18.5425 12.47623410320438
1 04383U 70036A   21095.96741905 -.00000016  00000-0 -41733-5 0  9994
2 04383  74.0317 345.7018 0014051  97.8543 272.2344 12.47623392320140
1 04383U 70036A   21096.16302786 -.00000020  00000-0 -29130-4 0  9998
2 04383  74.0316 345.4430 0014045  97.5300  70.8319 12.47623370320167
1 04383U 70036A   21096.40483731 -.00000005  00000-0  70787-4 0  9991
2 04383  74.0305 345.1229 0014056  97.1644  76.9089 12.47623394320197
1 04383U 70036A   21096.95622156 -.00000014  00000-0  14526-4 0  9996
2 04383  74.0315 344.3937 0014049  96.2919  33.4685 12.47623416320265
1  4383U 70036A   21097.44690090 -.00000010  00000-0  41282-4 0  9998
2  4383  74.0315 343.7446 0014050  95.5214  77.3634 12.47623426320717
1 04383U 70036A   21097.66330422 -.00000010  00000-0  41452-4 0  9991
2 04383  74.0314 343.4583 0014055  95.1894 329.3349 12.47623424320351
1 04383U 70036A   21098.15699303 -.00000005  00000-0  75502-4 0  9999
2 04383  74.0313 342.8051 0014061  94.4234  26.7379 12.47623437320412
1 04383U 70036A   21098.87995826 -.00000003  00000-0  88778-4 0  9994
2 04383  74.0312 341.8486 0014062  93.2999  33.9375 12.47623444320502
1 04383U 70036A   21099.45147832  .00000000  00000-0  10825-3 0  9998
2 04383  74.0311 341.0925 0014063  92.3940  80.9385 12.47623456320571
1 04383U 70036A   21099.89646575  .00000005  00000-0  14029-3 0  9999
2 04383  74.0311 340.5038 0014061  91.7022 279.6008 12.47623483320638
1  4383U 70036A   21099.89646575  .00000005  00000-0  14029-3 0  9999
2  4383  74.0311 340.5038 0014061  91.7022 279.6008 12.47623483321022
1 04383U 70036A   21100.41349435  .00000008  00000-0  15952-3 0  9994
2 04383  74.0309 339.8198 0014063  90.8741  81.8602 12.47623493320693
1 04383U 70036A   21101.37575344  .00000005  00000-0  13777-3 0  9990
2 04383  74.0308 338.5467 0014067  89.3620  83.8656 12.47623497320819
1 04383U 70036A   21101.90138773 -.00000008  00000-0  55433-4 0  9990
2 04383  74.0296 337.8510 0014076  88.5937 284.7054 12.47623479320889
1 04383U 70036A   21102.09313517  .00000005  00000-0  14244-3 0  9992
2 04383  74.0306 337.5976 0014072  88.2693  65.9650 12.47623514320900
1 04383U 70036A   21104.09760873  .00000003  00000-0  12557-3 0  9998
2 04383  74.0302 334.9455 0014088  85.1773  69.0404 12.47623612321150
1  4383U 70036A   21104.09760873  .00000003  00000-0  12557-3 0  9998
2  4383  74.0302 334.9455 0014088  85.1773  69.0404 12.47623612321543
1 04383U 70036A   21105.38460965 -.00000002  00000-0  93128-4 0  9994
2 04383  74.0300 333.2427 0014096  83.1863  89.5998 12.47623654321315
1 04383U 70036A   21105.67939840 -.00000005  00000-0  70175-4 0  9999
2 04383  74.0299 332.8527 0014100  82.7420 333.6305 12.47623660321354
1 04383U 70036A   21106.31929056 -.00000011  00000-0  29695-4 0  9997
2 04383  74.0298 332.0061 0014104  81.7402 327.7154 12.47623648321432
1  4383U 70036A   21106.31929056 -.00000011  00000-0  29695-4 0  9997
2  4383  74.0298 332.0061 0014104  81.7402 327.7154 12.47623648321825
1 04383U 70036A   21106.80566015 -.00000015  00000-0  36444-5 0  9998
2 04383  74.0297 331.3626 0014104  80.9929 352.2375 12.47623650321492
1 04383U 70036A   21107.60554663 -.00000017  00000-0 -72637-5 0  9990
2 04383  74.0296 330.3042 0014105  79.7290 344.9507 12.47623659321595
1 04383U 70036A   21107.91473765 -.00000018  00000-0 -15526-4 0  9991
2 04383  74.0295 329.8951 0014103  79.2466 293.6849 12.47623637321634
1 04383U 70036A   21108.35135002 -.00000017  00000-0 -66339-5 0  9997
2 04383  74.0294 329.3174 0014107  78.5571  94.7417 12.47623652321681
1  4383U 70036A   21108.35135002 -.00000017  00000-0 -66339-5 0  9997
2  4383  74.0294 329.3174 0014107  78.5571  94.7417 12.47623652322075
1 04383U 70036A   21108.87660574 -.00000016  00000-0 -12107-5 0  9994
2 04383  74.0293 328.6224 0014110  77.7559 293.9142 12.47623651321754
1 04383U 70036A   21109.60901525 -.00000014  00000-0  12192-4 0  9990
2 04383  74.0292 327.6533 0014117  76.6103 343.5411 12.47623685321843
1 04383U 70036A   21109.94022194 -.00000005  00000-0  71449-4 0  9993
2 04383  74.0291 327.2150 0014117  76.1068  31.1459 12.47623713321886
1  4383U 70036A   21110.35574038 -.00000002  00000-0  94910-4 0  9994
2  4383  74.0290 326.6652 0014122  75.4633  97.4458 12.47623730322324
1 04383U 70036A   21110.56110200 -.00000002  00000-0  95443-4 0  9996
2 04383  74.0290 326.3935 0014123  75.1528 299.8195 12.47623730321961
1 04383U 70036A   21110.90230041  .00000001  00000-0  11409-3 0  9997
2 04383  74.0289 325.9420 0014128  74.6339  32.3019 12.47623735322008
1 04383U 70036A   21111.61388140  .00000000  00000-0  10398-3 0  9995
2 04383  74.0288 325.0004 0014135  73.5457 348.3525 12.47623742322092
1 04383U 70036A   21111.77728796  .00000000  00000-0  10823-3 0  9990
2 04383  74.0287 324.7841 0014137  73.3009   2.2844 12.47623740322110
1  4383U 70036A   21112.36032506  .00000003  00000-0  12642-3 0  9997
2  4383  74.0287 324.0126 0014140  72.3805 101.0115 12.47623742322577
1 04383U 70036A   21112.57623892  .00000003  00000-0  12751-3 0  9995
2 04383  74.0286 323.7269 0014142  72.0549 350.7793 12.47623750322219
1 04383U 70036A   21112.90598293  .00000006  00000-0  14695-3 0  9990
2 04383  74.0286 323.2906 0014143  71.5513  31.8167 12.47623750322254
1 04383U 70036A   21113.08139525  .00000009  00000-0  16642-3 0  9996
2 04383  74.0285 323.0584 0014145  71.2739  99.6867 12.47623776322271
1 04383U 70036A   21113.37560317  .00000009  00000-0  16557-3 0  9990
2 04383  74.0285 322.6691 0014150  70.8328 341.1063 12.47623772322314
1  4383U 70036A   21114.36484419  .00000005  00000-0  13929-3 0  9994
2  4383  74.0283 321.3601 0014157  69.3055 104.2757 12.47623782322821
1 04383U 70036A   21114.57998079  .00000003  00000-0  12849-3 0  9997
2 04383  74.0283 321.0754 0014159  68.9801 350.5535 12.47623791322463
1 04383U 70036A   21114.91176976  .00000004  00000-0  13575-3 0  9997
2 04383  74.0282 320.6363 0014158  68.4412  40.8081 12.47623788322501
1 04383U 70036A   21115.62151630  .00000002  00000-0  12085-3 0  9999
2 04383  74.0281 319.6971 0014164  67.3436 348.6321 12.47623821322597
